[{"OBJECT_NAME":"GPS BIIR-08","OBJECT_ID":"2003-005A","EPOCH":"2026-04-02T08:02:55.567968","MEAN_MOTION":2.00564702,"ECCENTRICITY":0.01484895,"INCLINATION":54.8996,"RA_OF_ASC_NODE":217.9811,"ARG_OF_PERICENTER":52.8797,"MEAN_ANOMALY":318.1338,"EPHEMERIS_TYPE":0,"CLASSIFICATION_TYPE":"U","NORAD_CAT_ID":27663,"ELEMENT_SET_NO":999,"REV_AT_EPOCH":16979,"BSTAR":0,"MEAN_MOTION_DOT":-1.9e-7,"MEAN_MOTION_DDOT":0},{"OBJECT_NAME":"GPS BIIR-11","OBJECT_ID":"2004-009A","EPOCH":"2026-04-03T08:14:52.746720","MEAN_MOTION":2.00557195,"ECCENTRICITY":0.01124448,"INCLINATION":54.8926,"RA_OF_ASC_NODE":278.7093,"ARG_OF_PERICENTER":169.9755,"MEAN_ANOMALY":4.1137,"EPHEMERIS_TYPE":0,"CLASSIFICATION_TYPE":"U","NORAD_CAT_ID":28190,"ELEMENT_SET_NO":999,"REV_AT_EPOCH":16144,"BSTAR":0,"MEAN_MOTION_DOT":-3.5e-7,"MEAN_MOTION_DDOT":0},{"OBJECT_NAME":"GPS BIIR-13","OBJECT_ID":"2004-045A","EPOCH":"2026-04-03T18:10:57.999072","MEAN_MOTION":2.00575016,"ECCENTRICITY":0.01703658,"INCLINATION":55.1778,"RA_OF_ASC_NODE":327.8951,"ARG_OF_PERICENTER":313.9861,"MEAN_ANOMALY":224.1146,"EPHEMERIS_TYPE":0,"CLASSIFICATION_TYPE":"U","NORAD_CAT_ID":28474,"ELEMENT_SET_NO":999,"REV_AT_EPOCH":15693,"BSTAR":0,"MEAN_MOTION_DOT":-8.6e-7,"MEAN_MOTION_DDOT":0},{"OBJECT_NAME":"GPS BIIR-14M","OBJECT_ID":"2005-038A","EPOCH":"2026-04-03T19:33:16.012224","MEAN_MOTION":2.00570956,"ECCENTRICITY":0.01280917,"INCLINATION":54.9397,"RA_OF_ASC_NODE":276.177,"ARG_OF_PERICENTER":295.6947,"MEAN_ANOMALY":243.8966,"EPHEMERIS_TYPE":0,"CLASSIFICATION_TYPE":"U","NORAD_CAT_ID":28874,"ELEMENT_SET_NO":999,"REV_AT_EPOCH":15034,"BSTAR":0,"MEAN_MOTION_DOT":-3.0e-7,"MEAN_MOTION_DDOT":0},{"OBJECT_NAME":"METEOSAT-9 (MSG-2)","OBJECT_ID":"2005-049B","EPOCH":"2026-04-03T23:18:49.449024","MEAN_MOTION":1.00273367,"ECCENTRICITY":5.947e-5,"INCLINATION":9.1959,"RA_OF_ASC_NODE":54.8826,"ARG_OF_PERICENTER":40.9643,"MEAN_ANOMALY":131.8166,"EPHEMERIS_TYPE":0,"CLASSIFICATION_TYPE":"U","NORAD_CAT_ID":28912,"ELEMENT_SET_NO":999,"REV_AT_EPOCH":625,"BSTAR":0,"MEAN_MOTION_DOT":1.26e-6,"MEAN_MOTION_DDOT":0},{"OBJECT_NAME":"GPS BIIR-16M","OBJECT_ID":"2006-052A","EPOCH":"2026-04-03T15:05:23.550720","MEAN_MOTION":2.00553741,"ECCENTRICITY":0.00871043,"INCLINATION":54.9497,"RA_OF_ASC_NODE":216.9603,"ARG_OF_PERICENTER":89.906,"MEAN_ANOMALY":271.0674,"EPHEMERIS_TYPE":0,"CLASSIFICATION_TYPE":"U","NORAD_CAT_ID":29601,"ELEMENT_SET_NO":999,"REV_AT_EPOCH":14191,"BSTAR":0,"MEAN_MOTION_DOT":-4.0e-8,"MEAN_MOTION_DDOT":0},{"OBJECT_NAME":"GPS BIIR-17M","OBJECT_ID":"2007-047A","EPOCH":"2026-04-03T22:25:25.432032","MEAN_MOTION":2.00559174,"ECCENTRICITY":0.01640793,"INCLINATION":54.0407,"RA_OF_ASC_NODE":83.1242,"ARG_OF_PERICENTER":86.2343,"MEAN_ANOMALY":275.6386,"EPHEMERIS_TYPE":0,"CLASSIFICATION_TYPE":"U","NORAD_CAT_ID":32260,"ELEMENT_SET_NO":999,"REV_AT_EPOCH":13532,"BSTAR":0,"MEAN_MOTION_DOT":-1.4e-7,"MEAN_MOTION_DDOT":0},{"OBJECT_NAME":"GPS BIIR-18M","OBJECT_ID":"2007-062A","EPOCH":"2026-04-04T00:02:28.728096","MEAN_MOTION":2.00555539,"ECCENTRICITY":0.00338812,"INCLINATION":55.0918,"RA_OF_ASC_NODE":277.1328,"ARG_OF_PERICENTER":161.3217,"MEAN_ANOMALY":14.6689,"EPHEMERIS_TYPE":0,"CLASSIFICATION_TYPE":"U","NORAD_CAT_ID":32384,"ELEMENT_SET_NO":999,"REV_AT_EPOCH":13402,"BSTAR":0,"MEAN_MOTION_DOT":-3.0e-7,"MEAN_MOTION_DDOT":0},{"OBJECT_NAME":"GOES 14","OBJECT_ID":"2009-033A","EPOCH":"2026-04-04T04:35:38.555808","MEAN_MOTION":1.00111592,"ECCENTRICITY":0.00018234,"INCLINATION":1.4992,"RA_OF_ASC_NODE":83.9394,"ARG_OF_PERICENTER":295.6803,"MEAN_ANOMALY":65.207,"EPHEMERIS_TYPE":0,"CLASSIFICATION_TYPE":"U","NORAD_CAT_ID":35491,"ELEMENT_SET_NO":999,"REV_AT_EPOCH":584,"BSTAR":0,"MEAN_MOTION_DOT":4.9e-7,"MEAN_MOTION_DDOT":0},{"OBJECT_NAME":"GOES 15","OBJECT_ID":"2010-008A","EPOCH":"2026-04-04T04:31:49.429056","MEAN_MOTION":1.00271551,"ECCENTRICITY":0.00032997,"INCLINATION":1.0837,"RA_OF_ASC_NODE":84.3159,"ARG_OF_PERICENTER":17.6509,"MEAN_ANOMALY":221.7739,"EPHEMERIS_TYPE":0,"CLASSIFICATION_TYPE":"U","NORAD_CAT_ID":36411,"ELEMENT_SET_NO":999,"REV_AT_EPOCH":5889,"BSTAR":0,"MEAN_MOTION_DOT":2.2e-7,"MEAN_MOTION_DDOT":0},{"OBJECT_NAME":"GSAT0101 (GALILEO-PFM)","OBJECT_ID":"2011-060A","EPOCH":"2026-04-03T22:31:49.917216","MEAN_MOTION":1.70475877,"ECCENTRICITY":0.00041002,"INCLINATION":57.0172,"RA_OF_ASC_NODE":343.7769,"ARG_OF_PERICENTER":17.7484,"MEAN_ANOMALY":342.3127,"EPHEMERIS_TYPE":0,"CLASSIFICATION_TYPE":"U","NORAD_CAT_ID":37846,"ELEMENT_SET_NO":999,"REV_AT_EPOCH":8985,"BSTAR":0,"MEAN_MOTION_DOT":-9.5e-7,"MEAN_MOTION_DDOT":0},{"OBJECT_NAME":"GSAT0102 (GALILEO-FM2)","OBJECT_ID":"2011-060B","EPOCH":"2026-04-04T03:50:30.890400","MEAN_MOTION":1.70475892,"ECCENTRICITY":0.00048118,"INCLINATION":57.0179,"RA_OF_ASC_NODE":343.7712,"ARG_OF_PERICENTER":9.1881,"MEAN_ANOMALY":172.2383,"EPHEMERIS_TYPE":0,"CLASSIFICATION_TYPE":"U","NORAD_CAT_ID":37847,"ELEMENT_SET_NO":999,"REV_AT_EPOCH":8986,"BSTAR":0,"MEAN_MOTION_DOT":-9.5e-7,"MEAN_MOTION_DDOT":0},{"OBJECT_NAME":"LUCH 5A","OBJECT_ID":"2011-074B","EPOCH":"2026-04-04T05:31:38.645760","MEAN_MOTION":1.00271206,"ECCENTRICITY":0.00031768,"INCLINATION":8.567,"RA_OF_ASC_NODE":74.881,"ARG_OF_PERICENTER":284.46,"MEAN_ANOMALY":83.044,"EPHEMERIS_TYPE":0,"CLASSIFICATION_TYPE":"U","NORAD_CAT_ID":37951,"ELEMENT_SET_NO":999,"REV_AT_EPOCH":5231,"BSTAR":0,"MEAN_MOTION_DOT":-4.7e-7,"MEAN_MOTION_DDOT":0},{"OBJECT_NAME":"METEOSAT-10 (MSG-3)","OBJECT_ID":"2012-035B","EPOCH":"2026-04-04T04:13:43.663584","MEAN_MOTION":1.00273251,"ECCENTRICITY":0.00024263,"INCLINATION":4.4973,"RA_OF_ASC_NODE":61.3269,"ARG_OF_PERICENTER":295.6453,"MEAN_ANOMALY":259.02,"EPHEMERIS_TYPE":0,"CLASSIFICATION_TYPE":"U","NORAD_CAT_ID":38552,"ELEMENT_SET_NO":999,"REV_AT_EPOCH":5011,"BSTAR":0,"MEAN_MOTION_DOT":-5.0e-8,"MEAN_MOTION_DDOT":0},{"OBJECT_NAME":"SARSAT 13 (METOP-B)","OBJECT_ID":"2012-049A","EPOCH":"2026-04-04T04:59:42.828576","MEAN_MOTION":14.2142752,"ECCENTRICITY":0.00024148,"INCLINATION":98.6586,"RA_OF_ASC_NODE":147.1564,"ARG_OF_PERICENTER":172.2208,"MEAN_ANOMALY":187.9007,"EPHEMERIS_TYPE":0,"CLASSIFICATION_TYPE":"U","NORAD_CAT_ID":38771,"ELEMENT_SET_NO":999,"REV_AT_EPOCH":70275,"BSTAR":0.00011894858,"MEAN_MOTION_DOT":2.17e-6,"MEAN_MOTION_DDOT":0},{"OBJECT_NAME":"GPS BIIF-3","OBJECT_ID":"2012-053A","EPOCH":"2026-04-04T00:42:50.918400","MEAN_MOTION":2.00566305,"ECCENTRICITY":0.01774089,"INCLINATION":53.57,"RA_OF_ASC_NODE":146.638,"ARG_OF_PERICENTER":64.9742,"MEAN_ANOMALY":296.9422,"EPHEMERIS_TYPE":0,"CLASSIFICATION_TYPE":"U","NORAD_CAT_ID":38833,"ELEMENT_SET_NO":999,"REV_AT_EPOCH":9795,"BSTAR":0,"MEAN_MOTION_DOT":3.1e-7,"MEAN_MOTION_DDOT":0},{"OBJECT_NAME":"GSAT0103 (GALILEO-FM3)","OBJECT_ID":"2012-055A","EPOCH":"2026-04-01T15:11:16.527552","MEAN_MOTION":1.70473455,"ECCENTRICITY":0.00058933,"INCLINATION":55.758,"RA_OF_ASC_NODE":103.6444,"ARG_OF_PERICENTER":291.3384,"MEAN_ANOMALY":68.6425,"EPHEMERIS_TYPE":0,"CLASSIFICATION_TYPE":"U","NORAD_CAT_ID":38857,"ELEMENT_SET_NO":999,"REV_AT_EPOCH":8370,"BSTAR":0,"MEAN_MOTION_DOT":3.6e-7,"MEAN_MOTION_DDOT":0}]
